ARIANE 40+ R/B          
1 23561U 95021B   26106.63501442  .00000160  00000+0  64861-4 0  9999
2 23561  98.4439 177.5916 0007292  38.0254  90.2149 14.39798929624709
SL-16 R/B               
1 23705U 95058B   26106.72268670  .00000227  00000+0  14047-3 0  9996
2 23705  71.0195 100.4049 0010654  55.7813 304.4318 14.15503731573238
SL-16 R/B               
1 24298U 96051B   26106.70109663  .00000035  00000+0  45702-4 0  9992
2 24298  70.7569  94.7826 0012636  83.2420 277.0137 14.12425460527015
ORBVIEW 2 (SEASTAR)     
1 24883U 97037A   26106.47484700  .00000148  00000+0  67666-4 0  9997
2 24883  98.8629 271.8006 0001419 334.8141  25.2974 14.35520777513898
SL-16 R/B               
1 25400U 98043G   26106.61968740  .00000010  00000+0  23019-4 0  9990
2 25400  98.8316  60.2672 0008748 264.2912  95.7270 14.26058317444395
SL-16 R/B               
1 25407U 98045B   26106.71492007 -.00000014  00000+0  17202-4 0  9990
2 25407  71.0092 101.6072 0008979 314.5216  45.5173 14.16199089432485
ISS (ZARYA)             
1 25544U 98067A   26106.84451399  .00004242  00000+0  85733-4 0  9999
2 25544  51.6329 243.6903 0006573 315.5681  44.4780 15.48789484562249
CZ-4B R/B               
1 25732U 99025C   26106.85410744  .00000019  00000+0  29962-4 0  9993
2 25732  98.6553 150.2178 0036217 234.0356 299.7349 14.18272722393579
OKEAN-O                 
1 25860U 99039A   26106.43589148  .00000335  00000+0  50757-4 0  9996
2 25860  97.9370 165.9290 0001254 115.4497 244.6845 14.80393131439971
SL-16 R/B               
1 25861U 99039B   26106.58293412  .00000285  00000+0  42920-4 0  9996
2 25861  97.9893 165.6078 0015887 131.2279 229.0306 14.81781901442479
DELTA 2 R/B             
1 25876U 99041E   26106.80934293  .00000215  00000+0  75082-4 0  9997
2 25876  51.7597 148.9961 0502535 100.8380 264.9506 14.11918394368417
HELIOS 1B               
1 25977U 99064A   26106.44417245  .00000810  00000+0  95021-4 0  9993
2 25977  98.1658   9.7915 0000764  39.4823 320.6448 14.87838892690871
TERRA                   
1 25994U 99068A   26106.88308762  .00000221  00000+0  54131-4 0  9990
2 25994  97.9517 158.8435 0003545  74.5652  99.0633 14.61053831400656
